SENTINEL-6              
1 46984U 20086A   24042.67054674 -.00000030  00000+0  13526-3 0  9991
2 46984  66.0411 114.0482 0007815 270.3241  89.6879 12.80930580150628
